ONEWEB-0144             
1 47290U 20100AJ  24176.86711262  .00000386  00000+0  10380-2 0  9998
2 47290  87.8944 134.4755 0001795  74.0773 286.0554 13.12443455169821
ONEWEB-0145             
1 47291U 20100AK  24176.91413298 -.00000401  00000+0 -11494-2 0  9990
2 47291  87.8943 134.4902 0001984  79.2837 280.8515 13.12441011170022
ONEWEB-0146             
1 47292U 20100AL  24176.91089682 -.00000383  00000+0 -10988-2 0  9993
2 47292  87.8945 134.4743 0002453  89.8689 270.2721 13.12442861169936
ONEWEB-0147             
1 47293U 20100AM  24176.87683643  .00000439  00000+0  11842-2 0  9996
2 47293  87.8940 134.4750 0002177  73.9089 286.2279 13.12443268169826
ONEWEB-0115             
1 48042U 21025A   24177.16416632  .00000407  00000+0  10803-2 0  9992
2 48042  87.8926 103.9508 0002187  78.6625 281.4750 13.13471854158826
ONEWEB-0152             
1 48043U 21025B   24176.87215887  .00000797  00000+0  21485-2 0  9999
2 48043  87.8929 104.0081 0002328  79.1557 280.9834 13.13471017158733
ONEWEB-0153             
1 48044U 21025C   24177.30699200  .00000123  00000+0  30213-3 0  9997
2 48044  87.8935 103.9082 0001939  76.3257 283.8088 13.13472300158798
ONEWEB-0154             
1 48045U 21025D   24177.30381756  .00000033  00000+0  54970-4 0  9999
2 48045  87.8929 103.9201 0002041  76.6813 283.4543 13.13472473158750
